{
  "type": "FeatureCollection",
  "features": [
    {
      "type": "Feature",
      "properties": {
        "norad_id": 33939,
        "name": "COSMOS 2251 DEB",
        "group": "cosmos-2251-debris",
        "lat": -5.879830851715738,
        "lon": -117.52156507745447,
        "alt_km": 571.8320456519532,
        "timestamp": "2025-12-22T11:33:20.833199+00:00",
        "meta_object_name": "COSMOS 2251 DEB",
        "meta_object_id": "1993-036EU",
        "meta_epoch": "2025-12-22T04:19:45.158592",
        "meta_mean_motion": 15.00500361,
        "meta_eccentricity": 0.0004711,
        "meta_inclination": 74.0057,
        "meta_ra_of_asc_node": 61.399,
        "meta_arg_of_pericenter": 23.4951,
        "meta_mean_anomaly": 336.645,
        "meta_ephemeris_type": 0,
        "meta_classification_type": "U",
        "meta_norad_cat_id": 33939,
        "meta_element_set_no": 999,
        "meta_rev_at_epoch": 88894,
        "meta_bstar": 0.0031413,
        "meta_mean_motion_dot": 0.00039787,
        "meta_mean_motion_ddot": 0,
        "tle_line1": "1 33939U 93036EU  25356.18038378  .00039787  00000+0  31413-2 0  9994",
        "tle_line2": "2 33939  74.0057  61.3990 0004711  23.4951 336.6450 15.00500361888942"
      },
      "geometry": {
        "type": "Point",
        "coordinates": [
          -117.52156507745447,
          -5.879830851715738
        ]
      }
    },
    {
      "type": "Feature",
      "properties": {
        "norad_id": 33940,
        "name": "COSMOS 2251 DEB",
        "group": "cosmos-2251-debris",
        "lat": -50.88941273382935,
        "lon": 104.33715906389607,
        "alt_km": 704.7956350577515,
        "timestamp": "2025-12-22T11:33:20.833209+00:00",
        "meta_object_name": "COSMOS 2251 DEB",
        "meta_object_id": "1993-036EV",
        "meta_epoch": "2025-12-22T02:44:04.121376",
        "meta_mean_motion": 14.58878644,
        "meta_eccentricity": 0.0010858,
        "meta_inclination": 74.04,
        "meta_ra_of_asc_node": 125.6471,
        "meta_arg_of_pericenter": 206.2214,
        "meta_mean_anomaly": 330.327,
        "meta_ephemeris_type": 0,
        "meta_classification_type": "U",
        "meta_norad_cat_id": 33940,
        "meta_element_set_no": 999,
        "meta_rev_at_epoch": 88730,
        "meta_bstar": 0.0011271,
        "meta_mean_motion_dot": 5.257e-05,
        "meta_mean_motion_ddot": 0,
        "tle_line1": "1 33940U 93036EV  25356.11393659  .00005257  00000+0  11271-2 0  9990",
        "tle_line2": "2 33940  74.0400 125.6471 0010858 206.2214 330.3270 14.58878644887300"
      },
      "geometry": {
        "type": "Point",
        "coordinates": [
          104.33715906389607,
          -50.88941273382935
        ]
      }
    },
    {
      "type": "Feature",
      "properties": {
        "norad_id": 33942,
        "name": "COSMOS 2251 DEB",
        "group": "cosmos-2251-debris",
        "lat": 44.43483325780775,
        "lon": 60.589311298172355,
        "alt_km": 774.3518281225361,
        "timestamp": "2025-12-22T11:33:20.833219+00:00",
        "meta_object_name": "COSMOS 2251 DEB",
        "meta_object_id": "1993-036EX",
        "meta_epoch": "2025-12-21T21:55:52.040064",
        "meta_mean_motion": 14.38000996,
        "meta_eccentricity": 0.0020691,
        "meta_inclination": 74.0364,
        "meta_ra_of_asc_node": 257.9335,
        "meta_arg_of_pericenter": 339.5262,
        "meta_mean_anomaly": 95.9039,
        "meta_ephemeris_type": 0,
        "meta_classification_type": "U",
        "meta_norad_cat_id": 33942,
        "meta_element_set_no": 999,
        "meta_rev_at_epoch": 88266,
        "meta_bstar": 0.00019402,
        "meta_mean_motion_dot": 5.62e-06,
        "meta_mean_motion_ddot": 0,
        "tle_line1": "1 33942U 93036EX  25355.91379676  .00000562  00000+0  19402-3 0  9991",
        "tle_line2": "2 33942  74.0364 257.9335 0020691 339.5262  95.9039 14.38000996882664"
      },
      "geometry": {
        "type": "Point",
        "coordinates": [
          60.589311298172355,
          44.43483325780775
        ]
      }
    },
    {
      "type": "Feature",
      "properties": {
        "norad_id": 33944,
        "name": "COSMOS 2251 DEB",
        "group": "cosmos-2251-debris",
        "lat": -15.306631448771158,
        "lon": -73.48846874495416,
        "alt_km": 713.2350993751124,
        "timestamp": "2025-12-22T11:33:20.833229+00:00",
        "meta_object_name": "COSMOS 2251 DEB",
        "meta_object_id": "1993-036EZ",
        "meta_epoch": "2025-12-21T22:34:08.882976",
        "meta_mean_motion": 14.3736316,
        "meta_eccentricity": 0.0112573,
        "meta_inclination": 74.0407,
        "meta_ra_of_asc_node": 291.9987,
        "meta_arg_of_pericenter": 29.2483,
        "meta_mean_anomaly": 36.9653,
        "meta_ephemeris_type": 0,
        "meta_classification_type": "U",
        "meta_norad_cat_id": 33944,
        "meta_element_set_no": 999,
        "meta_rev_at_epoch": 88160,
        "meta_bstar": 0.0003259,
        "meta_mean_motion_dot": 1.02e-05,
        "meta_mean_motion_ddot": 0,
        "tle_line1": "1 33944U 93036EZ  25355.94038059  .00001020  00000+0  32590-3 0  9996",
        "tle_line2": "2 33944  74.0407 291.9987 0112573  29.2483  36.9653 14.37363160881608"
      },
      "geometry": {
        "type": "Point",
        "coordinates": [
          -73.48846874495416,
          -15.306631448771158
        ]
      }
    },
    {
      "type": "Feature",
      "properties": {
        "norad_id": 33945,
        "name": "COSMOS 2251 DEB",
        "group": "cosmos-2251-debris",
        "lat": 39.69227206216773,
        "lon": -57.833308927313205,
        "alt_km": 759.0595035051729,
        "timestamp": "2025-12-22T11:33:20.833239+00:00",
        "meta_object_name": "COSMOS 2251 DEB",
        "meta_object_id": "1993-036FA",
        "meta_epoch": "2025-12-21T20:18:03.022848",
        "meta_mean_motion": 14.34607432,
        "meta_eccentricity": 0.0022299,
        "meta_inclination": 74.0302,
        "meta_ra_of_asc_node": 289.5815,
        "meta_arg_of_pericenter": 13.4727,
        "meta_mean_anomaly": 346.7015,
        "meta_ephemeris_type": 0,
        "meta_classification_type": "U",
        "meta_norad_cat_id": 33945,
        "meta_element_set_no": 999,
        "meta_rev_at_epoch": 88146,
        "meta_bstar": 0.00010461,
        "meta_mean_motion_dot": 2.7e-06,
        "meta_mean_motion_ddot": 0,
        "tle_line1": "1 33945U 93036FA  25355.84586832  .00000270  00000+0  10461-3 0  9992",
        "tle_line2": "2 33945  74.0302 289.5815 0022299  13.4727 346.7015 14.34607432881465"
      },
      "geometry": {
        "type": "Point",
        "coordinates": [
          -57.833308927313205,
          39.69227206216773
        ]
      }
    },
    {
      "type": "Feature",
      "properties": {
        "norad_id": 33948,
        "name": "COSMOS 2251 DEB",
        "group": "cosmos-2251-debris",
        "lat": -67.30511941023902,
        "lon": -115.93386366131136,
        "alt_km": 775.3445381600222,
        "timestamp": "2025-12-22T11:33:20.833249+00:00",
        "meta_object_name": "COSMOS 2251 DEB",
        "meta_object_id": "1993-036FD",
        "meta_epoch": "2025-12-21T20:50:44.208672",
        "meta_mean_motion": 14.35639515,
        "meta_eccentricity": 0.002314,
        "meta_inclination": 74.036,
        "meta_ra_of_asc_node": 288.3846,
        "meta_arg_of_pericenter": 2.0177,
        "meta_mean_anomaly": 358.1065,
        "meta_ephemeris_type": 0,
        "meta_classification_type": "U",
        "meta_norad_cat_id": 33948,
        "meta_element_set_no": 999,
        "meta_rev_at_epoch": 88154,
        "meta_bstar": 0.00017709,
        "meta_mean_motion_dot": 4.86e-06,
        "meta_mean_motion_ddot": 0,
        "tle_line1": "1 33948U 93036FD  25355.86856723  .00000486  00000+0  17709-3 0  9997",
        "tle_line2": "2 33948  74.0360 288.3846 0023140   2.0177 358.1065 14.35639515881541"
      },
      "geometry": {
        "type": "Point",
        "coordinates": [
          -115.93386366131136,
          -67.30511941023902
        ]
      }
    },
    {
      "type": "Feature",
      "properties": {
        "norad_id": 33971,
        "name": "COSMOS 2251 DEB",
        "group": "cosmos-2251-debris",
        "lat": 39.81110609243365,
        "lon": 41.91511352292362,
        "alt_km": 768.864559574502,
        "timestamp": "2025-12-22T11:33:20.833260+00:00",
        "meta_object_name": "COSMOS 2251 DEB",
        "meta_object_id": "1993-036FE",
        "meta_epoch": "2025-12-22T03:17:14.269344",
        "meta_mean_motion": 14.39740837,
        "meta_eccentricity": 0.0018908,
        "meta_inclination": 74.0242,
        "meta_ra_of_asc_node": 236.3659,
        "meta_arg_of_pericenter": 335.2501,
        "meta_mean_anomaly": 177.8956,
        "meta_ephemeris_type": 0,
        "meta_classification_type": "U",
        "meta_norad_cat_id": 33971,
        "meta_element_set_no": 999,
        "meta_rev_at_epoch": 88274,
        "meta_bstar": 0.00023269,
        "meta_mean_motion_dot": 7.04e-06,
        "meta_mean_motion_ddot": 0,
        "tle_line1": "1 33971U 93036FE  25356.13697071  .00000704  00000+0  23269-3 0  9994",
        "tle_line2": "2 33971  74.0242 236.3659 0018908 335.2501 177.8956 14.39740837882741"
      },
      "geometry": {
        "type": "Point",
        "coordinates": [
          41.91511352292362,
          39.81110609243365
        ]
      }
    }
  ]
}